{"type":"FeatureCollection","features":[{"type":"Feature","properties":{"label":"tumour","level":0},"geometry":{"type":"Polygon","coordinates":[[[120,150],[260,150],[260,290],[120,290],[120,150]]]}},{"type":"Feature","properties":{"label":"necrosis","level":0},"geometry":{"type":"Polygon","coordinates":[[[0,370],[512,370],[512,512],[0,512],[0,370]]]}},{"type":"Feature","properties":{"label":"stroma","level":0},"geometry":{"type":"Polygon","coordinates":[[[300,30],[480,30],[480,220],[300,220],[300,30]]]}}]}
