[{"type":"Feature","id":"ab4ed051-4419-4cce-bf53-a702239ada39","geometry":{"type":"Polygon","coordinates":[[[8, 6],[8, 14],[20, 14],[20, 6],[8, 6]]]},"properties":{"objectType":"annotation","classification":{"name":"region","color":[18, 52, 86]},"isLocked":true}},{"type":"Feature","id":"7f2ad06c-8054-493f-a615-8167b28d675b","geometry":{"type":"Polygon","coordinates":[[[24, 12],[34, 12],[34, 2],[24, 2],[24, 12]],[[31, 5],[31, 9],[27, 9],[27, 5],[31, 5]]]},"properties":{"objectType":"annotation","classification":{"name":"donut","color":[171, 205, 239]}}}]