{
  "type": "FeatureCollection",
  "features": [
    {
      "type": "Feature",
      "id": "a71f79f7-7237-89d1-ad63-e08acb14a9c2",
      "geometry": {
        "type": "Polygon",
        "coordinates": [
          [
            [8, 6],
            [20, 6],
            [20, 14],
            [8, 14],
            [8, 6]
          ]
        ]
      },
      "properties": {
        "objectType": "annotation",
        "classification": {
          "name": "region",
          "color": [
            18,
            52,
            86
          ]
        },
        "metadata": {
          "annotatR_roi_id": "level-roi",
          "annotatR_coordinate_schema": "annotatR-pixel-level-v1",
          "annotatR_coordinate_level": "0"
        },
        "isLocked": true,
        "layer": "L",
        "level": 0,
        "source_level": 1,
        "coordinate_schema": "annotatR-pixel-level-v1"
      }
    },
    {
      "type": "Feature",
      "id": "072dc539-62cc-8ef6-a321-f3ede055c247",
      "geometry": {
        "type": "Polygon",
        "coordinates": [
          [
            [24, 2],
            [34, 2],
            [34, 12],
            [24, 12],
            [24, 2]
          ],
          [
            [27, 5],
            [27, 9],
            [31, 9],
            [31, 5],
            [27, 5]
          ]
        ]
      },
      "properties": {
        "objectType": "annotation",
        "classification": {
          "name": "donut",
          "color": [
            171,
            205,
            239
          ]
        },
        "metadata": {
          "annotatR_roi_id": "donut-roi",
          "annotatR_coordinate_schema": "annotatR-pixel-level-v1",
          "annotatR_coordinate_level": "0"
        },
        "isLocked": false,
        "layer": "L",
        "level": 0,
        "source_level": 0,
        "coordinate_schema": "annotatR-pixel-level-v1"
      }
    },
    {
      "type": "Feature",
      "id": "00000000-0000-0000-0000-000000000103",
      "geometry": {
        "type": "Polygon",
        "coordinates": [
          [
            [1, 1],
            [3, 1],
            [3, 3],
            [1, 3],
            [1, 1]
          ]
        ]
      },
      "properties": {
        "objectType": "detection",
        "classification": {
          "name": "cell",
          "color": [
            1,
            2,
            3
          ]
        },
        "metadata": {
          "annotatR_roi_id": "00000000-0000-0000-0000-000000000103",
          "annotatR_coordinate_schema": "annotatR-pixel-level-v1",
          "annotatR_coordinate_level": "0"
        },
        "isLocked": false,
        "layer": "L",
        "level": 0,
        "source_level": 0,
        "coordinate_schema": "annotatR-pixel-level-v1"
      }
    }
  ]
}
